start=new Date('2022-09-24T00:00:00.000Z').valueOf();
sats=[{"ARG_OF_PERICENTER":"73.7126","DECAY_DATE":null,"MEAN_ANOMALY":"286.4019","TLE_LINE2":"2 45403  53.0545  46.5689 0001421  73.7126 286.4019 15.06399572139585","MEAN_ELEMENT_THEORY":"SGP4","MEAN_MOTION":"15.06399572","MEAN_MOTION_DDOT":"0.0000000000000","OBJECT_TYPE":"PAYLOAD","TLE_LINE1":"1 45403U 20019AV  22266.65979405  .00003030  00000-0  22221-3 0  9999","ECCENTRICITY":"0.00014210","REV_AT_EPOCH":"13958","SEMIMAJOR_AXIS":"6925.350","GP_ID":"213331950","SITE":"AFETR","RCS_SIZE":"LARGE","INCLINATION":"53.0545","TIME_SYSTEM":"UTC","OBJECT_ID":"2020-019AV","RA_OF_ASC_NODE":"46.5689","OBJECT_NAME":"STARLINK-1259","PERIAPSIS":"546.231","REF_FRAME":"TEME","NORAD_CAT_ID":"45403","ELEMENT_SET_NO":"999","MEAN_MOTION_DOT":"0.00003030","LAUNCH_DATE":"2020-03-18","CLASSIFICATION_TYPE":"U","PERIOD":"95.592","CENTER_NAME":"EARTH","FILE":"3581681","EPOCH":"2022-09-23T15:50:06.205920","EPHEMERIS_TYPE":"0","APOAPSIS":"548.199","COUNTRY_CODE":"US","BSTAR":"0.00022221000000"},{"RCS_SIZE":"LARGE","OBJECT_ID":"2020-019AW","INCLINATION":"53.0566","TIME_SYSTEM":"UTC","GP_ID":"213332200","SEMIMAJOR_AXIS":"6925.379","SITE":"AFETR","REF_FRAME":"TEME","RA_OF_ASC_NODE":"46.5386","PERIAPSIS":"546.310","OBJECT_NAME":"STARLINK-1260","MEAN_ANOMALY":"283.1528","DECAY_DATE":null,"MEAN_MOTION":"15.06389916","MEAN_ELEMENT_THEORY":"SGP4","TLE_LINE2":"2 45404  53.0566  46.5386 0001349  76.9612 283.1528 15.06389916139497","ARG_OF_PERICENTER":"76.9612","REV_AT_EPOCH":"13949","MEAN_MOTION_DDOT":"0.0000000000000","OBJECT_TYPE":"PAYLOAD","TLE_LINE1":"1 45404U 20019AW  22266.67085531 -.00001065  00000-0 -52607-4 0  9990","ECCENTRICITY":"0.00013490","EPOCH":"2022-09-23T16:06:01.898784","CENTER_NAME":"EARTH","FILE":"3581681","BSTAR":"-0.00005260700000","COUNTRY_CODE":"US","EPHEMERIS_TYPE":"0","APOAPSIS":"548.179","MEAN_MOTION_DOT":"-0.00001065","NORAD_CAT_ID":"45404","ELEMENT_SET_NO":"999","CLASSIFICATION_TYPE":"U","PERIOD":"95.593","LAUNCH_DATE":"2020-03-18"},{"ARG_OF_PERICENTER":"78.2995","TLE_LINE2":"2 45405  53.0562  46.0145 0001305  78.2995 281.8140 15.06400868139511","MEAN_ELEMENT_THEORY":"SGP4","MEAN_MOTION":"15.06400868","DECAY_DATE":null,"MEAN_ANOMALY":"281.8140","OBJECT_TYPE":"PAYLOAD","TLE_LINE1":"1 45405U 20019AX  22266.78880402  .00001545  00000-0  12260-3 0  9994","ECCENTRICITY":"0.00013050","MEAN_MOTION_DDOT":"0.0000000000000","REV_AT_EPOCH":"13951","SITE":"AFETR","GP_ID":"213330451","SEMIMAJOR_AXIS":"6925.346","TIME_SYSTEM":"UTC","INCLINATION":"53.0562","OBJECT_ID":"2020-019AX","RCS_SIZE":"LARGE","OBJECT_NAME":"STARLINK-1263","PERIAPSIS":"546.307","RA_OF_ASC_NODE":"46.0145","REF_FRAME":"TEME","ELEMENT_SET_NO":"999","NORAD_CAT_ID":"45405","MEAN_MOTION_DOT":"0.00001545","LAUNCH_DATE":"2020-03-18","CLASSIFICATION_TYPE":"U","PERIOD":"95.592","FILE":"3581681","CENTER_NAME":"EARTH","EPOCH":"2022-09-23T18:55:52.667328","APOAPSIS":"548.115","EPHEMERIS_TYPE":"0","COUNTRY_CODE":"US","BSTAR":"0.00012260000000"},{"EPOCH":"2022-09-23T15:55:24.840480","FILE":"3581681","CENTER_NAME":"EARTH","BSTAR":"-0.00000543370000","COUNTRY_CODE":"US","APOAPSIS":"548.173","EPHEMERIS_TYPE":"0","MEAN_MOTION_DOT":"-0.00000362","ELEMENT_SET_NO":"999","NORAD_CAT_ID":"45406","PERIOD":"95.592","CLASSIFICATION_TYPE":"U","LAUNCH_DATE":"2020-03-18","OBJECT_ID":"2020-019AY","INCLINATION":"53.0569","TIME_SYSTEM":"UTC","RCS_SIZE":"LARGE","GP_ID":"213331200","SEMIMAJOR_AXIS":"6925.365","SITE":"AFETR","REF_FRAME":"TEME","PERIAPSIS":"546.287","OBJECT_NAME":"STARLINK-1265","RA_OF_ASC_NODE":"46.5519","MEAN_MOTION":"15.06394605","TLE_LINE2":"2 45406  53.0569  46.5519 0001362  88.9517 271.1628 15.06394605139491","MEAN_ELEMENT_THEORY":"SGP4","DECAY_DATE":null,"MEAN_ANOMALY":"271.1628","ARG_OF_PERICENTER":"88.9517","REV_AT_EPOCH":"13949","ECCENTRICITY":"0.00013620","TLE_LINE1":"1 45406U 20019AY  22266.66348195 -.00000362  00000-0 -54337-5 0  9991","OBJECT_TYPE":"PAYLOAD","MEAN_MOTION_DDOT":"0.0000000000000"},{"MEAN_MOTION_DDOT":"0.0000000000000","ECCENTRICITY":"0.00011910","TLE_LINE1":"1 45407U 20019AZ  22266.67728007  .00000011  00000-0  19609-4 0  9998","OBJECT_TYPE":"PAYLOAD","REV_AT_EPOCH":"13949","ARG_OF_PERICENTER":"89.1643","MEAN_ANOMALY":"270.9482","DECAY_DATE":null,"MEAN_MOTION":"15.06394843","MEAN_ELEMENT_THEORY":"SGP4","TLE_LINE2":"2 45407  53.0550  46.5062 0001191  89.1643 270.9482 15.06394843139497","RA_OF_ASC_NODE":"46.5062","PERIAPSIS":"546.405","OBJECT_NAME":"STARLINK-1275","REF_FRAME":"TEME","GP_ID":"213331452","SITE":"AFETR","SEMIMAJOR_AXIS":"6925.364","RCS_SIZE":"LARGE","OBJECT_ID":"2020-019AZ","INCLINATION":"53.0550","TIME_SYSTEM":"UTC","CLASSIFICATION_TYPE":"U","PERIOD":"95.592","LAUNCH_DATE":"2020-03-18","NORAD_CAT_ID":"45407","ELEMENT_SET_NO":"999","MEAN_MOTION_DOT":"0.00000011","EPHEMERIS_TYPE":"0","APOAPSIS":"548.054","BSTAR":"0.00001960900000","COUNTRY_CODE":"US","CENTER_NAME":"EARTH","FILE":"3581681","EPOCH":"2022-09-23T16:15:16.998048"},{"RA_OF_ASC_NODE":"75.8502","OBJECT_NAME":"STARLINK-1278","PERIAPSIS":"546.229","REF_FRAME":"TEME","SITE":"AFETR","GP_ID":"213331701","SEMIMAJOR_AXIS":"6925.322","RCS_SIZE":"LARGE","INCLINATION":"53.0558","TIME_SYSTEM":"UTC","OBJECT_ID":"2020-019BA","MEAN_MOTION_DDOT":"0.0000000000000","OBJECT_TYPE":"PAYLOAD","TLE_LINE1":"1 45408U 20019BA  22266.82290181  .00004868  00000-0  34541-3 0  9998","ECCENTRICITY":"0.00013840","REV_AT_EPOCH":"13910","ARG_OF_PERICENTER":"83.7666","DECAY_DATE":null,"MEAN_ANOMALY":"276.3481","MEAN_ELEMENT_THEORY":"SGP4","TLE_LINE2":"2 45408  53.0558  75.8502 0001384  83.7666 276.3481 15.06408653139101","MEAN_MOTION":"15.06408653","EPHEMERIS_TYPE":"0","APOAPSIS":"548.146","COUNTRY_CODE":"US","BSTAR":"0.00034541000000","CENTER_NAME":"EARTH","FILE":"3581681","EPOCH":"2022-09-23T19:44:58.716384","LAUNCH_DATE":"2020-03-18","PERIOD":"95.592","CLASSIFICATION_TYPE":"U","NORAD_CAT_ID":"45408","ELEMENT_SET_NO":"999","MEAN_MOTION_DOT":"0.00004868"},{"REV_AT_EPOCH":"13949","MEAN_MOTION_DDOT":"0.0000000000000","ECCENTRICITY":"0.00015120","TLE_LINE1":"1 45409U 20019BB  22266.61926299  .00001196  00000-0  99188-4 0  9992","OBJECT_TYPE":"PAYLOAD","MEAN_ANOMALY":"280.6468","DECAY_DATE":null,"MEAN_ELEMENT_THEORY":"SGP4","TLE_LINE2":"2 45409  53.0579  46.7696 0001512  79.4692 280.6468 15.06386999139493","MEAN_MOTION":"15.06386999","ARG_OF_PERICENTER":"79.4692","REF_FRAME":"TEME","RA_OF_ASC_NODE":"46.7696","OBJECT_NAME":"STARLINK-1282","PERIAPSIS":"546.206","RCS_SIZE":"LARGE","INCLINATION":"53.0579","TIME_SYSTEM":"UTC","OBJECT_ID":"2020-019BB","SEMIMAJOR_AXIS":"6925.388","GP_ID":"213330950","SITE":"AFETR","LAUNCH_DATE":"2020-03-18","PERIOD":"95.593","CLASSIFICATION_TYPE":"U","MEAN_MOTION_DOT":"0.00001196","NORAD_CAT_ID":"45409","ELEMENT_SET_NO":"999","COUNTRY_CODE":"US","BSTAR":"0.00009918800000","EPHEMERIS_TYPE":"0","APOAPSIS":"548.301","EPOCH":"2022-09-23T14:51:44.322336","CENTER_NAME":"EARTH","FILE":"3581681"},{"COUNTRY_CODE":"US","BSTAR":"0.00011095000000","APOAPSIS":"548.177","EPHEMERIS_TYPE":"0","EPOCH":"2022-09-23T18:24:02.313216","FILE":"3581681","CENTER_NAME":"EARTH","LAUNCH_DATE":"2020-03-18","CLASSIFICATION_TYPE":"U","PERIOD":"95.593","MEAN_MOTION_DOT":"0.00001371","ELEMENT_SET_NO":"999","NORAD_CAT_ID":"45411","REF_FRAME":"TEME","OBJECT_NAME":"STARLINK-1293","PERIAPSIS":"546.302","RA_OF_ASC_NODE":"46.0912","INCLINATION":"53.0570","TIME_SYSTEM":"UTC","OBJECT_ID":"2020-019BD","RCS_SIZE":"LARGE","SEMIMAJOR_AXIS":"6925.374","GP_ID":"213330702","SITE":"AFETR","REV_AT_EPOCH":"13953","OBJECT_TYPE":"PAYLOAD","TLE_LINE1":"1 45411U 20019BD  22266.76669344  .00001371  00000-0  11095-3 0  9991","ECCENTRICITY":"0.00013540","MEAN_MOTION_DDOT":"0.0000000000000","TLE_LINE2":"2 45411  53.0570  46.0912 0001354  96.7324 263.3819 15.06391622139531","MEAN_ELEMENT_THEORY":"SGP4","MEAN_MOTION":"15.06391622","MEAN_ANOMALY":"263.3819","DECAY_DATE":null,"ARG_OF_PERICENTER":"96.7324"},{"MEAN_MOTION_DDOT":"0.0000000000000","TLE_LINE1":"1 45412U 20019BE  22266.79986963  .00005846  00000-0  41090-3 0  9993","OBJECT_TYPE":"PAYLOAD","ECCENTRICITY":"0.00015020","REV_AT_EPOCH":"13951","ARG_OF_PERICENTER":"63.7312","MEAN_ANOMALY":"296.3831","DECAY_DATE":null,"MEAN_MOTION":"15.06409188","MEAN_ELEMENT_THEORY":"SGP4","TLE_LINE2":"2 45412  53.0543  45.9409 0001502  63.7312 296.3831 15.06409188139512","RA_OF_ASC_NODE":"45.9409","PERIAPSIS":"546.145","OBJECT_NAME":"STARLINK-1296","REF_FRAME":"TEME","SEMIMAJOR_AXIS":"6925.320","GP_ID":"213331951","SITE":"AFETR","RCS_SIZE":"LARGE","OBJECT_ID":"2020-019BE","INCLINATION":"53.0543","TIME_SYSTEM":"UTC","PERIOD":"95.592","CLASSIFICATION_TYPE":"U","LAUNCH_DATE":"2020-03-18","NORAD_CAT_ID":"45412","ELEMENT_SET_NO":"999","MEAN_MOTION_DOT":"0.00005846","EPHEMERIS_TYPE":"0","APOAPSIS":"548.226","BSTAR":"0.00041090000000","COUNTRY_CODE":"US","CENTER_NAME":"EARTH","FILE":"3581681","EPOCH":"2022-09-23T19:11:48.736032"},{"PERIOD":"95.592","CLASSIFICATION_TYPE":"U","LAUNCH_DATE":"2020-03-18","MEAN_MOTION_DOT":"0.00001590","ELEMENT_SET_NO":"999","NORAD_CAT_ID":"45413","BSTAR":"0.00012562000000","COUNTRY_CODE":"US","APOAPSIS":"548.097","EPHEMERIS_TYPE":"0","EPOCH":"2022-09-23T18:18:43.278624","FILE":"3581681","CENTER_NAME":"EARTH","REV_AT_EPOCH":"13960","TLE_LINE1":"1 45413U 20019BF  22266.76300091  .00001590  00000-0  12562-3 0  9997","ECCENTRICITY":"0.00012810","OBJECT_TYPE":"PAYLOAD","MEAN_MOTION_DDOT":"0.0000000000000","MEAN_MOTION":"15.06401356","MEAN_ELEMENT_THEORY":"SGP4","TLE_LINE2":"2 45413  53.0555  46.1053 0001281  75.2636 284.8495 15.06401356139602","DECAY_DATE":null,"MEAN_ANOMALY":"284.8495","ARG_OF_PERICENTER":"75.2636","REF_FRAME":"TEME","PERIAPSIS":"546.322","OBJECT_NAME":"STARLINK-1298","RA_OF_ASC_NODE":"46.1053","OBJECT_ID":"2020-019BF","INCLINATION":"53.0555","TIME_SYSTEM":"UTC","RCS_SIZE":"LARGE","GP_ID":"213332201","SITE":"AFETR","SEMIMAJOR_AXIS":"6925.344"}];
